#dP2023  1 15 18  0  0.00000000      96 __u+U ITR00 EXT  IAC
## 2245  64800.00000000   900.00000000 59959 0.7500000000000
+  119   C06C07C08C09C10C11C12C13C14C16C19C20C21C22C23C24C25
+        C26C27C28C29C30C32C33C34C35C36C37C38C39C40C41C42C43
+        C44C45C46E01E02E03E04E05E07E08E09E10E11E12E13E14E15
+        E18E19E21E24E25E26E27E30E31E33E34E36G01G02G03G04G05
+        G06G07G08G09G10G11G12G13G14G15G16G17G18G19G20G21G22
+        G23G24G25G26G27G29G30G31G32J02J03J04R01R02R03R04R05
+        R07R08R09R11R12R13R14R15R16R17R18R19R20R21R22R24R25
++        10  9 10 10  8  9  8 10 14 10  8  9  9  9  6  8 10
++         9  8  8  0  8  7 10  8  9  8  6 11 10  9  8 11  8
++         9  8  7  7  7  6  6  6  7  6  7  6  7  9  6  7  6
++         9  9  6  7  7  6  7  8  8  7  8  6  7  7  7  7  7
++         8  6  5  8  6  8  6  7  6  8  6  8  8  7  6  5  6
++         6  6  6  7  7  9  6  5  7  8  9  9  8  9  8  9  8
++         9  9  9  6  7  8  8  7  7  8  8  9  8  6  6  7  7
%c M  cc GPS ccc cccc cccc cccc cccc ccccc ccccc ccccc ccccc
%c cc cc ccc ccc cccc cccc cccc cccc ccccc ccccc ccccc ccccc
%f  0.0000000  0.000000000  0.00000000000  0.000000000000000
%f  0.0000000  0.000000000  0.00000000000  0.000000000000000
%i    0    0    0    0      0      0      0      0         0
%i    0    0    0    0      0      0      0      0         0
/* IAC                                ULTRA-RAPID PREDICTION
/* S/V CLOCKS ARE ALIGNED TO GNSS TIME                      
/* G:C1WC2W R:C1PC2P E:C1XC5X C:C2IC6I J:C1CC2S             
/* PCV:IGS20_2239 OL/AL:FES2004  NONE     YN ORB:CoN CLK:CoN
*  2023 01 15 23 15  0.00000000
PC06  -2421.827362  37000.395866  20310.513512   -185.516803
PC07 -10211.258946  26034.409093 -31517.004303     10.403891
PC08 -17161.091131  35358.044112  15061.426380    527.689799
PC09   2300.507632  40305.227201  13446.993601    277.349607
PC10  -3724.330258  26774.842235 -32072.632208     31.497000
PC11  18731.837909  11605.330276  17183.459802   -175.807379
PC12  13852.622457  24187.396498   1332.793852    399.590373
PC13 -12217.820683  35624.295713  18831.357572    184.235197
PC14  27199.549714   3700.909182   4891.815468    372.460883
PC16  -3508.897311  35887.865664  22279.476707     81.120062
PC19 -27402.195715   2757.822720   4573.066900   -896.917876
PC20 -23723.007931  -8509.154777 -11994.386931    765.664302
PC21   5337.032724  15512.273845  22588.108600   -916.630272
PC22 -15482.804695  12940.723487  19283.750958   -683.781452
PC23  15929.927991 -22764.019969  -2671.290396   -871.698812
PC24  11696.907463  11887.582078 -22391.129061   -536.300685
PC25  19722.881251  -9439.660560 -17366.226367     56.107655
PC26  -1320.381419  23682.603703 -14689.250537    -64.855734
PC27  -8344.257859 -25670.304369   7034.259721     82.136997
PC28   5677.972472 -18644.495484  19978.691378     59.335346
PC29 -17529.250518     99.490266 -21714.913341     67.942525
PC30 -18663.553770 -18373.928187  -9603.183852      1.276407
PC32  -5387.054593 -15476.564470 -22573.074844   -649.204364
PC33  27399.389046  -2838.800241  -4432.647396   -880.569492
PC34  18963.269135  17506.508085  10638.724969     84.499652
PC35  -6125.849725  17890.508765 -20542.454218    455.500004
PC36 -19857.056738   8274.517725  17783.810798   -692.160356
PC37   3067.951774 -24184.550172  13611.982206   -846.745360
PC38 -21527.073532  35595.302000   6373.711281     52.200637
PC39  -6532.605420  31761.235328  27085.211575     -1.432914
PC40 -15696.176821  19569.663204 -33928.352406    -12.633800
PC41  16028.368390 -12777.271166 -18885.068135   -498.186440
PC42  22870.182162   9228.410036  13087.252596   -893.611207
PC43  17927.548498    774.847122  21371.881600      2.266786
PC44   9090.488341  25399.638488  -7219.090602    178.451645
PC45 -15710.400690  22930.835213   2280.849184    -48.020936
PC46 -12746.519146 -10140.368202  22652.626740    -26.692717
PE01 -11361.256288 -12712.508121  24191.895844   -595.142536
PE02  11768.759690  12459.881194 -24143.061178     14.929928
PE03  20923.519318  19435.586113   7769.653874   -640.301482
PE04 -26559.882140  -7897.915524  10406.298736    -36.998393
PE05   2832.097115  19811.782103  21809.369394   -104.822842
PE07  16700.442534  -8562.558575 -22887.619850    -15.454978
PE08  26556.948422   7968.846721 -10359.019991    -20.072555
PE09 -16785.999715   8321.909450  22916.357373   -801.401819
PE10 -15576.970241   8052.278360 -23846.541020   -505.351014
PE11 -12678.404195  19187.031295 -18646.500645    475.923320
PE12 -15934.815909  -3282.273022 -24722.270761   -385.569144
PE13  12941.285131 -18358.141139  19284.574833    429.901660
PE14  10903.755856 -11086.773048  18554.059277    114.478946
PE15  15838.989204   3666.810388  24747.852517    693.905326
PE18 -19685.979814   9053.327807 -23457.371843   -504.925429
PE19 -19011.715991 -20255.769066 -10205.630014  -3477.717679
PE21   7885.563142 -19966.770535  20379.754156   -506.475020
PE24 -24629.930219  15931.534106  -3855.155242  -1060.086623
PE25  -8190.969139  20001.951737 -20216.296605   -597.260674
PE26   2043.273451 -29478.697283   1749.632219  -1850.317825
PE27  24180.457424 -16439.555453   4671.808559   -488.610724
PE30  25877.034153  -2588.691213 -14172.898579  -1163.357744
PE31 -26064.139898   3257.058229  13636.747002   -513.419708
PE33  -9358.906206 -23369.144146 -15553.981693   -454.147700
PE34   9496.846338  23228.247061  15694.869527    -25.029036
PE36  -2484.298764  29388.176664  -2566.384499   -490.989643
PG01  13147.070892 -14731.559826  17275.706865    223.975197
PG02 -10689.719609  18777.152677 -14962.066247   -627.078356
PG03  22963.475846 -12827.108585  -3355.722491   -371.932077
PG04  15047.651394  -6724.920540 -20846.101643    -47.954511
PG05 -23986.055137   3434.066709 -11181.079267   -112.130356
PG06  -6311.499642 -22123.314935 -13123.508038    559.034165
PG07   6478.441715 -24802.449394  -5446.956802    258.157983
PG08  22311.710901   3089.321376  14322.837155   -103.760029
PG09   4024.498283 -15477.381822 -21277.460668   -235.803207
PG10   2660.181724  15014.875253  21884.981019    -20.563638
PG11 -12807.124242 -10800.778877 -20607.326929    -79.655811
PG12 -24185.127023  10641.431759  -2340.765005   -328.549690
PG13 -21865.942619 -11637.144645   9667.256235    459.998973
PG14    505.246477 -16361.281817  20899.986880    -48.592302
PG15 -22520.053167   -294.486092  13839.389124      4.948706
PG16  23170.107812   1851.404886 -13566.844775   -523.728720
PG17  -8243.386192 -20241.050871  15464.244966    693.591486
PG18  -5045.434089  25838.424095  -2871.903756   -100.599423
PG19 -17104.082514 -19830.967321   4983.824619    264.614273
PG20 -17534.435818  -4947.235434 -19224.464971    456.825446
PG21  15181.962396  -5266.112718  21619.294654    153.468450
PG22  18934.146758  18619.722134   2701.582355    406.692323
PG23  -9675.771442  17729.083979  17173.442958      2.598398
PG24 -14320.014787  10755.703447  19135.334385    -31.603871
PG25 -18009.135986  16480.773828 -10413.007768    411.629060
PG26  14130.323118   9631.786243 -20501.803274    240.348841
PG27  23138.690452  12540.694136   4734.740251    126.137085
PG29  -7588.273172  12931.442620 -21962.211409   -580.613075
PG30  -1763.091042 -25641.053185   6228.363510   -533.161398
PG31   7867.866825  20639.202392 -14573.489887   -206.431677
PG32  12268.139550  19846.991124  13036.816026   -365.224935
PJ02 -36391.097152  19664.516789  -3664.490194     -0.583672
PJ03 -18811.701727  27152.562631 -21496.004260     -0.064780
PJ04 -27395.604492  29565.133352  18784.369878    118.931440
PR01   1131.047347 -10973.092750 -22998.933585     21.320370
PR02 -17670.421783 -10800.265584 -14800.892719    -23.310934
PR03 -25069.014984  -4156.348513   1846.219735     70.918849
PR04 -18389.604214   4336.921693  17155.170424    172.423384
PR05  -1734.440229  10636.450403  23129.924763    106.250945
PR07  25112.411732   3876.508536  -2508.718794     48.080705
PR08  18327.613789  -4528.710111 -17115.477892    -69.030485
PR09   5241.756988  11022.430819 -22394.475365     98.769944
PR11  18154.628455 -16864.131929  -6027.166805      5.993338
PR12   9434.672848 -20078.956703  12627.508096     24.349004
PR13  -3634.170447 -12131.808421  22122.004360    -30.992813
PR14 -16163.448727   4470.115876  19230.004896     24.234396
PR15 -18168.549090  17207.452335   4956.003826     91.688791
PR16  -9588.989911  20180.076043 -12330.675394     10.018637
PR17 -12555.808681  -7905.100311 -20745.403478    596.127939
PR18  -7442.053268   9700.338213 -22374.907739     61.980589
PR19     49.723771  21640.656180 -13497.385499   -218.358039
PR20   9674.075298  22633.763777   6793.312494    -85.920626
PR21  12207.125475   6220.189466  21516.831869   -365.727020
PR22   7873.354440 -10272.803230  22007.983523     66.783076
PR24 -10690.317550 -21978.507995  -7301.226392    139.877887
PR25  12453.943943   8728.600942  20482.427692     51.717849
EOF
